\output_url = "https://irsa.ipac.caltech.edu/workspace/TMP_FmruWd_8104/MOST/pid17003"
\catalog = "wise_merge"
\user_input_begin_time = "2014-05-01"
\user_input_end_time = "2014-05-30"
\object_name = "12 Victoria (A850 RA)"
\element_epoch = "56778.0000   (2014-May-01 00:00:00.0000)"
\eccentricity = " 0.221364531529095"
\inclination = " 8.368662061690546"
\argument_perihelion = "69.552208865051483"
\ascending_node = "235.490911873760894"
\semimajor_axis  =  " 2.333774627713947"
\mean_anomaly = "349.752560575505981"
\magnitude_parameters = " 7.34  0.00" 
\job_time_stamp = "Wed Mar 29 15:55:59 2023"
\description = MOST ODBC query result
\ odbc_dsn = postgres
\ odbc_table = wise.neowiser_merge_p1bm_frm
\fixlen = T
|    ra_obj|   dec_obj|sun_dist|geo_dist|  dist_ctr|   phase|  vmag|match|       band|                  crpix1|                  crpix2|                  crval1|                  crval2|                 equinox|                     ra1|                    dec1|                     ra2|                    dec2|                     ra3|                    dec3|                     ra4|                    dec4|  scan_id|  frame_num|                   date_obs|                 mjd_obs|                dtanneal|                moon_sep|                 saa_sep| qual_frame|  image_set|
|    double|    double|  double|  double|    double|  double|double|  int|        int|                  double|                  double|                  double|                  double|                  double|                  double|                  double|                  double|                  double|                  double|                  double|                  double|                  double|     char|        int|                       char|                  double|                  double|                  double|                  double|        int|        int|
 330.347004  -2.774481   1.8199   1.5384     0.3368  33.7700  11.28     1           2                    508.5                    508.5       330.58243211534102      -2.5333947546359998                     2000       331.08690115588701      -2.7592140933159999         330.351097649449      -3.0321698383159998       330.08121002997399      -2.3081553946239999       330.81635277237598      -2.0326878955900001    49025b         143     2014-05-21 07:10:57.012       56798.299270969997                   999999       6.7089999999999996       7.1719999999999997          10           6 
 330.347004  -2.774481   1.8199   1.5384     0.3365  33.7700  11.28     1           1                    508.5                    508.5       330.58251321705097      -2.5338832782009999                     2000       331.08588313842699      -2.7582931972039999         330.355675726046      -3.0327675588180001       330.08238699291701      -2.3098175892050001       330.81224561182302      -2.0329572705390002    49025b         143     2014-05-21 07:10:57.012       56798.299270969997                   999999       6.7089999999999996       7.1719999999999997          10           6 
 333.539704  -0.779309   1.8179   1.4638     0.4051  33.8429  11.17     1           2                    508.5                    508.5       333.13737646710803     -0.73146516746199997                     2000       333.64355483725598     -0.95237772168500001       332.91124523874601      -1.2325322875589999       332.63432436606701          -0.511240434355         333.366201351504     -0.22846918818600001    49273b         134     2014-05-29 11:00:08.319       56806.458429619997                   999999                  102.339                   15.039          10           6 
 333.539704  -0.779309   1.8179   1.4638     0.4050  33.8429  11.17     1           1                    508.5                    508.5       333.13746082690898     -0.73196991800800004                     2000       333.64250239515098     -0.95145012968099996       332.91585220441499      -1.2330748357679999       332.63554073174498     -0.51294105644400001       333.36206785387401     -0.22882210341799999    49273b         134     2014-05-29 11:00:08.319       56806.458429619997                   999999                  102.339                   15.039          10           6 
 333.589056  -0.747249   1.8179   1.4626     0.2985  33.8421  11.17     1           2                    508.5                    508.5       333.37055209306999     -0.95060811994200001                     2000       333.87681077726302          -1.171360044527       333.14462804923397          -1.451754326339       332.86743470194398     -0.73052606673800002         333.599153704495     -0.44752873810999999    49277b         135     2014-05-29 14:09:44.351       56806.590096660002                   999999                  103.825       46.517000000000003          10           6 
 333.589056  -0.747249   1.8179   1.4626     0.2987  33.8421  11.17     1           1                    508.5                    508.5       333.37064797161298     -0.95110895907600002                     2000       333.87580775855901      -1.1702855640580001       333.14924991628197      -1.4522682541850001       332.86862463177101     -0.73236506392099998         333.595028698222     -0.44790210517000001    49277b         135     2014-05-29 14:09:44.351       56806.590096660002                   999999                  103.825       46.517000000000003          10           6 
 333.638285  -0.715250   1.8179   1.4614     0.2855  33.8412  11.17     1           2                    508.5                    508.5       333.37880054792402     -0.59622187298700002                     2000       333.88508066329899     -0.81677858398799996         333.153123392118      -1.0974526846670001       332.87563762307099     -0.37636125502200002       333.60717883549597    -0.093062405717000002    49281b         134     2014-05-29 17:19:09.391           56806.72163647                   999999                  105.327       89.052999999999997          10           6 
 333.638285  -0.715250   1.8179   1.4614     0.2852  33.8412  11.17     1           1                    508.5                    508.5         333.378886887688     -0.59672139687000003                     2000       333.88408406276199     -0.81574642310300005       333.15772210321501           -1.09799274548         332.876802286128           -0.37815538223         333.603057480237    -0.093406663909000001    49281b         134     2014-05-29 17:19:09.391           56806.72163647                   999999                  105.327       89.052999999999997          10           6 
 333.687494  -0.683205   1.8178   1.4603     0.2172  33.8403  11.17     1           2                    508.5                    508.5       333.64403345271802     -0.89599040896000004                     2000       334.15049313048002      -1.1162643758649999         333.418539448498      -1.3973296105899999       333.14071197354701     -0.67638759698499995       333.87220732192401     -0.39271645461799998    49285b         135     2014-05-29 20:28:45.431       56806.853303600001                   999999                  106.803       115.07599999999999          10           6 
 333.687494  -0.683205   1.8178   1.4603     0.2177  33.8403  11.17     1           1                    508.5                    508.5       333.64412374092598     -0.89649479270900001                     2000       334.14946120363197      -1.1153074254349999       333.42314722285602      -1.3978667935060001       333.14191937833402     -0.67811673885699997         333.868085028243     -0.39307361042400002    49285b         135     2014-05-29 20:28:45.431       56806.853303600001                   999999                  106.803       115.07599999999999          10           6 
 333.736580  -0.651221   1.8178   1.4591     0.1274  33.8394  11.17     1           2                    508.5                    508.5       333.65799526329999     -0.55089553245599998                     2000       334.16447798063399     -0.77104055741199995       333.43268716889497      -1.0523193139510001         333.154627395435     -0.33144756160700001       333.88600641008202    -0.047541551963000001    49289b         134     2014-05-29 23:38:10.476       56806.984843470003                   999999                  108.294       73.320999999999998          10           6 
 333.736580  -0.651221   1.8178   1.4591     0.1270  33.8394  11.17     1           1                    508.5                    508.5       333.65808347879101     -0.55139789437300002                     2000       334.16343906937499     -0.77009109511100005       333.43729635084202      -1.0528540970269999       333.15583772894797     -0.33316509740200001       333.88187801117698    -0.047896792107999998    49289b         134     2014-05-29 23:38:10.476       56806.984843470003                   999999                  108.294       73.320999999999998          10           6 
